C/2020 H11 (PANSTARRS-Lemmon),e,151.3684,303.0584,91.3476,6362,0.0000019,0.99880206,0.0000,09/11.5448/2020,2000,g  8.5,4.0
# From MPEC 2023-KD6
C/2020 J1 (SONEAR),e,142.3103,226.5591,341.5229,4395,0.0000034,0.99923927,0.0000,04/17.5729/2021,2000,g  8.5,3.2
# From MPC191585
C/2020 K1 (PANSTARRS),e,89.6706,94.3672,213.9554,1693,0.0000141,0.99818414,0.0000,05/08.3962/2023,2000,g  5.5,4.0
# From MPEC 2021-N06
C/2020 K2 (PANSTARRS),e,90.9850,288.4370,67.2874,128016,0.0000000,0.99993063,0.0000,08/03.3213/2020,2000,g  6.5,4.0
# From MPEC 2023-N01
C/2020 K6 (Rankin),h,09/14.0236/2021,103.6266,291.6039,44.2451,1.001342,5.864896,2000,8.0,4.0
# From MPEC 2023-A50
C/2020 K7 (PANSTARRS),e,32.0443,286.1346,358.0122,93.72903,0.0010862,0.93189943,2.5237,03/05.0/2026,2000,g  8.0,4.0
# From MPEC 2021-BE3
P/2020 K9 (Lemmon-PANSTARRS),e,23.1851,166.3045,197.0677,4.208515,0.1141592,0.31980867,211.0713,03/05.0/2026,2000,g 12.5,4.0
# From MPEC 2023-N01
A/2020 M4,e,160.0941,348.6058,104.4306,6033,0.0000021,0.99901555,0.0000,11/21.9897/2020,2000,g 14.5,2.0
# From MPEC 2024-NE4
P/2020 MK4 (PANSTARRS),e,6.7807,0.6539,94.7020,6.226142,0.0634418,0.01568172,332.9394,03/05.0/2026,2000,g  8.0,4.0
# From MPEC 2023-FK0
C/2020 M5 (ATLAS),h,08/19.5727/2021,93.1588,351.9841,126.2508,1.000052,3.000902,2000,9.0,4.0
# From MPEC 2024-JU4
C/2020 O2 (Amaral),e,71.7659,256.7810,10.1273,5331,0.0000025,0.99908964,0.0000,08/26.8711/2021,2000,g  8.0,3.2
# From MPEC 2023-C45
P/2020 O3 (PANSTARRS),e,8.4443,266.8146,81.0248,4.645915,0.0984231,0.10242742,183.7645,03/05.0/2026,2000,g 12.0,4.0
# From MPEC 2024-JU4
C/2020 P3 (ATLAS),h,04/23.2199/2021,61.8333,19.4905,82.3744,1.003953,6.818349,2000,6.0,4.0
# From MPEC 2020-QN1
C/2020 P4-B (SOHO),h,08/07.6629/2020,26.8754,171.7638,173.3790,1.000557,0.102294,2000,0.0,6.0
# From MPEC 2020-QN1
C/2020 P4-C (SOHO),h,08/05.3398/2020,37.2558,165.3585,115.9092,1.013255,0.089504,2000,-1.6,6.0
# From MPC191586
C/2020 PV6 (PANSTARRS),e,128.1331,329.1172,71.2508,41.44760,0.0036936,0.94473211,5.9898,03/05.0/2026,2000,g 11.5,4.0
# From MPEC 2023-CD7
C/2020 Q2 (PANSTARRS),e,3.3365,179.8454,118.1091,10.59145,0.0285937,0.48849349,63.8395,03/05.0/2026,2000,g 12.0,3.2
# From MPEC 2024-F34
C/2020 R2 (PANSTARRS),e,53.2034,195.1457,211.8940,425.5292,0.0001123,0.98895112,0.0000,02/25.1935/2022,2000,g  9.0,4.0
# From MPEC 2023-C45
P/2020 R5 (PANSTARRS),e,11.4394,272.9378,82.7197,4.994598,0.0882985,0.31277345,186.2289,03/05.0/2026,2000,g  9.5,6.0
# From MPEC 2024-PC5
C/2020 R7 (ATLAS),e,114.9040,268.3055,347.7138,4208,0.0000036,0.99929914,0.0000,09/15.8762/2022,2000,g  7.0,3.2
# From MPEC 2024-N80
C/2020 S4 (PANSTARRS),h,02/09.7987/2023,20.5719,117.6750,21.0974,1.003142,3.371662,2000,8.5,3.2
# From MPEC 2021-BE3
P/2020 S5 (PANSTARRS),e,12.3397,316.0091,53.2569,4.059641,0.1204960,0.33699972,245.3355,03/05.0/2026,2000,g 14.5,4.0
# From MPEC 2022-TD3
C/2020 T2 (Palomar),e,27.8430,83.0057,150.3155,263.7082,0.0002302,0.99223098,0.0000,07/10.6847/2021,2000,g 11.0,3.2
# From MPEC 2024-TD8
C/2020 U4 (PANSTARRS),h,04/10.4073/2022,167.0039,120.4048,70.2012,1.001721,5.363118,2000,7.0,4.0
# From MPEC 2024-GJ3
C/2020 U5 (PANSTARRS),e,97.3164,107.3132,75.4708,196123,0.0000000,0.99998085,0.0000,04/28.6999/2022,2000,g  8.0,4.0
# From MPC188409
C/2020 V2 (ZTF),h,05/08.6228/2023,131.6077,212.4292,162.4931,1.001226,2.229761,2000,4.9,4.0
# From MPEC 2023-D72
P/2020 V3 (PANSTARRS),e,23.0134,198.2727,249.9393,8.413011,0.0403903,0.25776017,74.3939,03/05.0/2026,2000,g  8.3,4.0
# From MPC188409
P/2020 V4 (Rankin),e,14.2313,203.4874,257.3417,9.405235,0.0341704,0.45159879,57.6681,03/05.0/2026,2000,g  9.0,4.0
# From MPEC 2021-BE3
P/2020 W1 (Rankin),e,10.7761,124.3819,265.4167,7.227323,0.0507268,0.26497971,109.3577,03/05.0/2026,2000,g 10.0,4.0
# From MPEC 2024-PC5
P/2020 WJ5 (Lemmon),e,22.2897,177.7437,338.1546,6.016058,0.0667938,0.17232648,114.0481,03/05.0/2026,2000,g  8.5,4.0
# From MPEC 2024-F34
P/2020 X1 (ATLAS),e,31.6851,55.9942,323.5146,4.537573,0.1019691,0.36399175,209.5396,03/05.0/2026,2000,g 13.0,4.0
# From MPEC 2024-A43
C/2020 X2 (ATLAS),e,18.1871,105.3512,347.6350,16.56397,0.0146203,0.76838448,28.2712,03/05.0/2026,2000,g 10.6,4.0
# From MPEC 2021-S45
C/2020 X4 (Leonard),e,80.6706,161.9802,140.2558,40.51173,0.0038224,0.87110604,7.3993,03/05.0/2026,2000,g  9.0,4.0
# From MPC181179
C/2020 Y2 (ATLAS),e,101.2469,26.5518,266.4192,1193,0.0000239,0.99736177,0.0000,06/17.5716/2022,2000,g  6.5,4.0
# From MPC181179
C/2021 A1 (Leonard),h,01/04.1612/2022,132.7290,255.8986,225.1090,1.000283,0.614189,2000,8.5,4.0
# From MPC181180
P/2021 A5 (PANSTARRS),e,18.1850,328.6831,62.1613,3.051929,0.1848598,0.14097547,357.3320,03/05.0/2026,2000,g 15.0,4.0
# From MPEC 2024-P23
C/2021 A6 (PANSTARRS),e,75.5543,164.0041,351.6567,20334,0.0000003,0.99961018,0.0000,05/03.4495/2021,2000,g  7.0,4.0
# From MPEC 2022-M88
C/2021 A7 (NEOWISE),e,78.2471,154.3674,356.0285,2084,0.0000104,0.99905661,0.0000,07/15.2224/2021,2000,g 10.0,4.0
# From MPC191586
C/2021 A9 (PANSTARRS),e,158.0176,314.8497,211.6797,48593,0.0000001,0.99984017,0.0000,12/04.5587/2023,2000,g  6.0,4.0
# From MPEC 2021-U31
P/2021 C2 (PANSTARRS),e,21.9330,66.4518,78.7665,9.551217,0.0333900,0.48863061,61.2247,03/05.0/2026,2000,g 12.0,4.0
# From MPC191586
C/2021 C4 (ATLAS),e,132.8225,194.1983,319.9782,2737,0.0000069,0.99835869,0.0000,01/15.6539/2021,2000,g  9.0,4.0
# From MPEC 2024-N80
C/2021 C5 (PANSTARRS),e,50.8079,323.6754,270.8641,1683,0.0000143,0.99807526,0.0000,02/11.0353/2023,2000,g  9.0,4.0
# From MPC191586
C/2021 D2 (ZTF),h,02/03.3517/2022,83.7641,305.6128,125.1014,1.001378,2.952588,2000,9.0,4.0
# From MPEC 2022-UY9
A/2021 E2,e,167.4982,190.7077,342.1807,196.0868,0.0003589,0.98834808,0.0000,12/08.2119/2020,2000,g 15.0,2.0
# From MPEC 2024-GJ3
C/2021 E3 (ZTF),e,112.5204,104.4838,228.7796,3403,0.0000050,0.99947755,0.0000,06/10.5737/2022,2000,g  8.5,4.0
# From MPEC 2024-N80
A/2021 E4,e,116.3988,171.1271,48.3113,511.1833,0.0000853,0.99083966,0.0000,04/24.8865/2022,2000,g 13.5,2.0
# From MPC191586
C/2021 G2 (ATLAS),h,09/09.1568/2024,48.4593,221.0887,343.2672,1.001041,4.982028,2000,5.5,4.0
# From MPEC 2022-X67
C/2021 G3 (PANSTARRS),e,102.8783,147.3250,10.6298,12946,0.0000007,0.99959944,0.0000,10/17.9805/2021,2000,g 10.5,4.0
# From MPEC 2024-F34
P/2021 J3 (ATLAS),e,14.5111,110.9176,125.5444,8.878401,0.0372565,0.44986902,90.9103,03/05.0/2026,2000,g  7.0,4.0
# From MPEC 2022-O08
C/2021 K1 (ATLAS),e,16.2682,140.9321,184.1910,12.58459,0.0220773,0.80110269,39.0463,03/05.0/2026,2000,g 11.0,4.0
# From MPEC 2022-O01
C/2021 K2 (MASTER),h,09/08.9305/2021,100.8719,282.3400,343.2242,1.000069,5.459508,2000,8.0,4.0
# From MPEC 2022-L66
C/2021 K3 (Catalina),h,02/03.3002/2022,134.7803,114.6165,181.9686,1.003754,5.224093,2000,10.0,4.0
# From MPEC 2024-H50
C/2021 L3 (Borisov),h,02/14.9306/2022,78.5211,345.0258,91.6611,1.004185,8.461883,2000,6.0,4.0
# From MPEC 2022-TA0
P/2021 N1 (ZTF),e,11.4853,301.1316,21.2151,2.980527,0.1915422,0.67574068,332.2582,03/05.0/2026,2000,g 19.0,4.0
# From MPEC 2024-GJ3
P/2021 N2 (Fuls),e,13.0583,221.7541,177.6495,6.947895,0.0538176,0.45175480,84.6206,03/05.0/2026,2000,g  9.5,4.0
# From MPEC 2022-YB4
C/2021 N3 (PANSTARRS),e,26.7714,337.5429,304.5184,138.2153,0.0006066,0.95870770,1.2293,03/05.0/2026,2000,g  8.5,4.0
# From MPEC 2024-F34
C/2021 P1 (PANSTARRS),e,51.6070,359.7267,40.5303,2320,0.0000088,0.99811148,0.0000,06/02.3101/2022,2000,g 11.0,4.0
# From MPC185656
C/2021 P2 (PANSTARRS),e,150.0455,32.1022,76.6929,11771,0.0000008,0.99956965,0.0000,01/22.9867/2023,2000,g  9.0,4.0
# From MPEC 2024-GJ3
P/2021 P3 (PANSTARRS),e,27.1648,358.2428,333.9450,4.411631,0.1063666,0.33847946,185.3527,03/05.0/2026,2000,g 14.0,4.0
# From MPEC 2023-A50
C/2021 P4 (ATLAS),e,56.4128,347.9695,175.8286,299.9689,0.0001897,0.99640514,0.0000,07/30.5599/2022,2000,g  9.5,4.0
# From MPEC 2023-FK0
C/2021 Q3 (ATLAS),e,77.7070,307.9046,114.1637,74.63240,0.0015287,0.93016912,2.2920,03/05.0/2026,2000,g  8.0,4.0
# From MPC188409
C/2021 Q4 (Fuls),h,06/10.1603/2023,71.5553,183.3369,147.0071,1.000352,7.563338,2000,6.0,4.0
# From MPC181180
P/2021 Q5 (ATLAS),e,10.7376,239.7311,180.9734,3.284206,0.1655993,0.62417989,272.6292,03/05.0/2026,2000,g 15.0,4.0
# From MPC188409
C/2021 Q6 (PANSTARRS),h,03/25.3045/2024,161.8276,133.5734,141.0615,1.003504,8.707366,2000,6.0,4.0
# From MPEC 2023-FK0
C/2021 QM45 (PANSTARRS),e,22.7861,354.5905,72.9672,413.6633,0.0001171,0.99327699,0.0000,08/13.5418/2022,2000,g 11.0,4.0
# From MPEC 2022-X67
P/2021 R1 (PANSTARRS),e,5.5410,143.0512,219.9573,8.234904,0.0417077,0.40641614,64.6857,03/05.0/2026,2000,g 11.0,4.0
# From MPEC 2022-X67
C/2021 R2 (PANSTARRS),e,134.4776,16.3614,32.5620,19913,0.0000004,0.99963265,0.0000,12/28.6093/2021,2000,g  7.5,4.0
# From MPEC 2021-W31
P/2021 R3 (PANSTARRS),e,19.9454,304.1987,2.5748,3.767703,0.1347687,0.33225388,235.1322,03/05.0/2026,2000,g 16.0,4.0
# From MPEC 2024-JU4
P/2021 R5 (Rankin),e,7.8527,219.9690,167.6089,4.799143,0.0937472,0.30555777,141.8668,03/05.0/2026,2000,g 12.0,4.0
# From MPEC 2022-X67
C/2021 R7 (PANSTARRS),e,158.8813,170.2260,140.4379,1099,0.0000271,0.99485236,0.0000,04/17.8500/2021,2000,g 10.5,4.0
# From MPEC 2021-Y10
P/2021 R8 (Sheppard),e,2.2026,167.0555,190.7988,3.020678,0.1877359,0.29239905,302.4041,03/05.0/2026,2000,g 18.5,4.0
# From MPEC 2023-J29
C/2021 S1 (ATLAS),h,03/02.1733/2022,52.0332,299.8491,148.3569,1.002967,6.129002,2000,7.0,4.0
# From MPC191586
C/2021 S3 (PANSTARRS),e,58.5599,215.5840,6.8293,14109,0.0000006,0.99990651,0.0000,02/14.6604/2024,2000,g  5.5,4.0
# From MPC184409
C/2021 S4 (Tsuchinshan),e,17.4826,5.4347,73.0989,152.1968,0.0005249,0.95601419,0.4152,03/05.0/2026,2000,g  6.5,4.0
# From MPC184409
C/2021 T4 (Lemmon),e,160.7788,257.8831,329.7317,2742,0.0000069,0.99945997,0.0000,07/31.3862/2023,2000,g  7.5,4.0
# From MPEC 2024-JU4
P/2021 V2 (Fuls),e,12.6892,232.2734,259.9522,9.098479,0.0359129,0.61547413,40.8585,03/05.0/2026,2000,g 10.0,4.0
# From MPEC 2024-TD8
C/2021 X1 (Maury-Attard),h,05/27.4306/2023,140.1111,10.6414,334.6471,1.000857,3.234725,2000,7.0,4.0
